NORAD_CAT_ID,OBJECT_NAME,OBJECT_TYPE,EPOCH,MEAN_MOTION,ECCENTRICITY,INCLINATION,RA_OF_ASC_NODE,ARG_OF_PERICENTER,MEAN_ANOMALY,BSTAR,MEAN_MOTION_DOT,MEAN_MOTION_DDOT,TLE_LINE0,TLE_LINE1,TLE_LINE2,SEMIMAJOR_AXIS,PERIOD,APOGEE,PERIGEE,DECAYED
51743.0,STARLINK-3512,PAYLOAD,2023-07-20 17:19:47,15.08853082,0.0001489,53.2168,312.0535,118.3756,241.7386,0.0004074,6.204e-05,0.0,0 STARLINK-3512,1 51743U 22016AF  23201.72208252  .00006204  00000-0  40740-3 0  9997,2 51743  53.2168 312.0535 0001489 118.3756 241.7386 15.08853082 79455,6917.84,95.437,540.735,538.675,0.0
51743.0,STARLINK-3512,PAYLOAD,2023-07-21 07:38:16,15.08844858,0.0001017,53.2171,309.3815,93.9094,266.2014,9.147e-05,1.168e-05,0.0,0 STARLINK-3512,1 51743U 22016AF  23202.31824286  .00001168  00000-0  91470-4 0  9995,2 51743  53.2171 309.3815 0001017  93.9094 266.2014 15.08844858 79540,6917.866,95.437,540.434,539.027,0.0
51743.0,STARLINK-3512,PAYLOAD,2023-07-23 16:52:08,15.08838645,0.000216,53.2168,298.675,200.1906,159.9001,0.00010527,1.388e-05,0.0,0 STARLINK-3512,1 51743U 22016AF  23204.70287570  .00001388  00000-0  10527-3 0  9996,2 51743  53.2168 298.6750 0002160 200.1906 159.9001 15.08838645 78773,6917.885,95.438,541.244,538.255,0.0
51743.0,STARLINK-3512,PAYLOAD,2023-07-25 11:47:34,15.08840804,9.57e-05,53.2175,290.6515,66.7344,293.3749,0.00015868,2.239e-05,0.0,0 STARLINK-3512,1 51743U 22016AF  23206.49137045  .00002239  00000-0  15868-3 0  9994,2 51743  53.2175 290.6515 0000957  66.7344 293.3749 15.08840804 79049,6917.878,95.438,540.405,539.081,0.0
51743.0,STARLINK-3512,PAYLOAD,2023-07-26 08:27:35,15.08840028,0.0001965,53.2134,286.7904,29.5336,330.5767,7.9083e-05,9.71e-06,0.0,0 STARLINK-3512,1 51743U 22016AF  23207.35249297  .00000971  00000-0  79083-4 0  9994,2 51743  53.2134 286.7904 0001965  29.5336 330.5767 15.08840028 79176,6917.88,95.438,541.105,538.386,0.0
51743.0,STARLINK-3512,PAYLOAD,2023-07-26 14:49:07,15.08853599,0.0001314,53.2134,285.5966,55.1369,304.9746,0.00032422,4.878e-05,0.0,0 STARLINK-3512,1 51743U 22016AF  23207.61744649  .00004878  00000-0  32422-3 0  9999,2 51743  53.2134 285.5966 0001314  55.1369 304.9746 15.08853599 80340,6917.839,95.437,540.613,538.795,0.0
51743.0,STARLINK-3512,PAYLOAD,2023-07-27 05:07:35,15.08848298,0.0001499,53.2157,282.9196,65.868,294.2469,0.00023535,3.46e-05,0.0,0 STARLINK-3512,1 51743U 22016AF  23208.21360712  .00003460  00000-0  23535-3 0  9992,2 51743  53.2157 282.9196 0001499  65.8680 294.2469 15.08848298 80432,6917.855,95.437,540.757,538.683,0.0
51743.0,STARLINK-3512,PAYLOAD,2023-07-27 16:15:17,15.08848628,0.0001578,53.214,280.8397,55.4308,304.6833,0.00017622,2.518e-05,0.0,0 STARLINK-3512,1 51743U 22016AF  23208.67728479  .00002518  00000-0  17622-3 0  9993,2 51743  53.2140 280.8397 0001578  55.4308 304.6833 15.08848628 79373,6917.854,95.437,540.811,538.627,0.0
51743.0,STARLINK-3512,PAYLOAD,2023-07-28 08:09:08,15.08832052,0.0001155,53.213,277.8595,110.7348,249.3768,-0.00022294,-3.833e-05,0.0,0 STARLINK-3512,1 51743U 22016AF  23209.33968725 -.00003833  00000-0 -22294-3 0  9991,2 51743  53.2130 277.8595 0001155 110.7348 249.3768 15.08832052 79475,6917.905,95.438,540.569,538.971,0.0
51743.0,STARLINK-3512,PAYLOAD,2023-07-28 16:06:04,15.08834459,0.0001019,53.2138,276.3729,109.8132,250.297,-0.00010907,-2.023e-05,0.0,0 STARLINK-3512,1 51743U 22016AF  23209.67089013 -.00002023  00000-0 -10907-3 0  9990,2 51743  53.2138 276.3729 0001019 109.8132 250.2970 15.08834459 80656,6917.897,95.438,540.467,539.057,0.0
51743.0,STARLINK-3512,PAYLOAD,2023-07-29 15:56:51,15.08850987,0.0001108,53.2157,271.9127,110.5319,249.5792,3.4258e-05,2.58e-06,0.0,0 STARLINK-3512,1 51743U 22016AF  23210.66448573  .00000258  00000-0  34258-4 0  9993,2 51743  53.2157 271.9127 0001108 110.5319 249.5792 15.08850987 80809,6917.847,95.437,540.478,538.945,0.0
51743.0,STARLINK-3512,PAYLOAD,2023-07-30 11:01:29,15.08844932,0.0001078,53.2158,268.3452,92.7933,267.3183,0.00028842,4.306e-05,0.0,0 STARLINK-3512,1 51743U 22016AF  23211.45937387  .00004306  00000-0  28842-3 0  9996,2 51743  53.2158 268.3452 0001078  92.7933 267.3183 15.08844932 80928,6917.865,95.437,540.476,538.985,0.0
51743.0,STARLINK-3512,PAYLOAD,2023-07-31 10:52:17,15.08841677,0.000113,53.2154,263.8856,93.6003,266.5118,0.00010473,1.379e-05,0.0,0 STARLINK-3512,1 51743U 22016AF  23212.45297580  .00001379  00000-0  10473-3 0  9999,2 51743  53.2154 263.8856 0001130  93.6003 266.5118 15.08841677 81078,6917.875,95.437,540.522,538.959,0.0
51743.0,STARLINK-3512,PAYLOAD,2023-08-02 08:58:28,15.08840612,0.0001093,53.2147,255.2633,88.435,271.6767,0.00011602,1.559e-05,0.0,0 STARLINK-3512,1 51743U 22016AF  23214.37393808  .00001559  00000-0  11602-3 0  9997,2 51743  53.2147 255.2633 0001093  88.4350 271.6767 15.08840612 81360,6917.879,95.438,540.5,538.987,0.0
51743.0,STARLINK-3512,PAYLOAD,2023-08-03 13:35:24,15.08847701,0.0001103,53.2156,249.9095,87.357,272.7549,0.00010909,1.449e-05,0.0,0 STARLINK-3512,1 51743U 22016AF  23215.56625315  .00001449  00000-0  10909-3 0  9997,2 51743  53.2156 249.9095 0001103  87.3570 272.7549 15.08847701 81542,6917.857,95.437,540.485,538.959,0.0
51743.0,STARLINK-3512,PAYLOAD,2023-08-04 02:18:30,15.08837376,0.0001143,53.2158,247.5305,89.9644,270.1479,3.3285e-05,2.42e-06,0.0,0 STARLINK-3512,1 51743U 22016AF  23216.09618143  .00000242  00000-0  33285-4 0  9990,2 51743  53.2158 247.5305 0001143  89.9644 270.1479 15.08837376 81626,6917.888,95.438,540.544,538.963,0.0
51743.0,STARLINK-3512,PAYLOAD,2023-08-05 08:30:49,15.08842437,0.0001199,53.2161,241.8793,94.5904,265.5225,4.3551e-05,4.05e-06,0.0,0 STARLINK-3512,1 51743U 22016AF  23217.35473748  .00000405  00000-0  43551-4 0  9998,2 51743  53.2161 241.8793 0001199  94.5904 265.5225 15.08842437 81812,6917.873,95.437,540.567,538.908,0.0
51743.0,STARLINK-3512,PAYLOAD,2023-08-06 17:53:55,15.08832513,0.0001538,53.2166,235.6331,88.0114,272.1054,1.7591e-05,-8e-08,0.0,0 STARLINK-3512,1 51743U 22016AF  23218.74578610 -.00000008  00000-0  17591-4 0  9991,2 51743  53.2166 235.6331 0001538  88.0114 272.1054 15.08832513 82026,6917.903,95.438,540.832,538.704,0.0
51743.0,STARLINK-3512,PAYLOAD,2023-08-08 09:38:34,15.08841057,0.0001101,53.2158,228.2008,85.557,274.5548,4.8138e-05,4.78e-06,0.0,0 STARLINK-3512,1 51743U 22016AF  23220.40178351  .00000478  00000-0  48138-4 0  9996,2 51743  53.2158 228.2008 0001101  85.5570 274.5548 15.08841057 82274,6917.877,95.437,540.504,538.98,0.0
51743.0,STARLINK-3512,PAYLOAD,2023-08-09 17:26:17,15.08837352,0.0001135,53.2154,222.2526,86.2579,273.8543,7.018e-05,8.29e-06,0.0,0 STARLINK-3512,1 51743U 22016AF  23221.72658722  .00000829  00000-0  70180-4 0  9999,2 51743  53.2154 222.2526 0001135  86.2579 273.8543 15.08837352 82475,6917.888,95.438,540.539,538.968,0.0
51743.0,STARLINK-3512,PAYLOAD,2023-08-10 23:38:36,15.08843139,0.0001088,53.2152,216.6038,84.433,275.6787,8.2704e-05,1.029e-05,0.0,0 STARLINK-3512,1 51743U 22016AF  23222.98514424  .00001029  00000-0  82704-4 0  9996,2 51743  53.2152 216.6038 0001088  84.4330 275.6787 15.08843139 82661,6917.871,95.437,540.488,538.983,0.0
51743.0,STARLINK-3512,PAYLOAD,2023-08-12 02:40:10,15.0883819,0.0001454,53.2154,211.5494,77.0825,283.033,7.0932e-05,8.41e-06,0.0,0 STARLINK-3512,1 51743U 22016AF  23224.11122769  .00000841  00000-0  70932-4 0  9991,2 51743  53.2154 211.5494 0001454  77.0825 283.0330 15.08838190 82834,6917.886,95.438,540.757,538.745,0.0
51743.0,STARLINK-3512,PAYLOAD,2023-08-13 10:27:52,15.08840273,0.0001344,53.216,205.6011,94.6423,265.4723,4.205e-05,3.81e-06,0.0,0 STARLINK-3512,1 51743U 22016AF  23225.43602667  .00000381  00000-0  42050-4 0  9996,2 51743  53.2160 205.6011 0001344  94.6423 265.4723 15.08840273 83035,6917.88,95.438,540.674,538.815,0.0
51743.0,STARLINK-3512,PAYLOAD,2023-08-14 00:46:21,15.08832916,0.0001211,53.2157,202.925,87.8194,272.2937,5.3879e-05,5.7e-06,0.0,0 STARLINK-3512,1 51743U 22016AF  23226.03219183  .00000570  00000-0  53879-4 0  9991,2 51743  53.2157 202.9250 0001211  87.8194 272.2937 15.08832916 83126,6917.902,95.438,540.605,538.929,0.0
51743.0,STARLINK-3512,PAYLOAD,2023-08-15 02:12:31,15.08834339,0.0001344,53.2167,198.168,95.4504,264.6641,7.6771e-05,9.34e-06,0.0,0 STARLINK-3512,1 51743U 22016AF  23227.09203278  .00000934  00000-0  76771-4 0  9996,2 51743  53.2167 198.1680 0001344  95.4504 264.6641 15.08834339 83282,6917.898,95.438,540.692,538.833,0.0
51743.0,STARLINK-3512,PAYLOAD,2023-08-16 06:49:27,15.08846483,0.0001391,53.2177,192.8157,91.9235,268.1916,0.00013643,1.884e-05,0.0,0 STARLINK-3512,1 51743U 22016AF  23228.28434637  .00001884  00000-0  13643-3 0  9996,2 51743  53.2177 192.8157 0001391  91.9235 268.1916 15.08846483 83464,6917.861,95.437,540.688,538.763,0.0
51743.0,STARLINK-3512,PAYLOAD,2023-08-17 01:54:05,15.08835642,0.0001472,53.2185,189.244,77.013,283.1026,8.6624e-05,1.091e-05,0.0,0 STARLINK-3512,1 51743U 22016AF  23229.07923516  .00001091  00000-0  86624-4 0  9993,2 51743  53.2185 189.2440 0001472  77.0130 283.1026 15.08835642 83584,6917.894,95.438,540.777,538.74,0.0
51743.0,STARLINK-3512,PAYLOAD,2023-08-17 09:51:00,15.08850003,0.0001347,53.2168,187.7586,91.4881,268.6266,0.0001196,1.617e-05,0.0,0 STARLINK-3512,1 51743U 22016AF  23229.41042415  .00001617  00000-0  11960-3 0  9995,2 51743  53.2168 187.7586 0001347  91.4881 268.6266 15.08850003 83631,6917.85,95.437,540.647,538.783,0.0
51743.0,STARLINK-3512,PAYLOAD,2023-08-18 03:20:16,15.08839522,0.0001346,53.2168,184.4877,94.6717,265.4429,-3.4688e-05,-8.4e-06,0.0,0 STARLINK-3512,1 51743U 22016AF  23230.13907549 -.00000840  00000-0 -34688-4 0  9996,2 51743  53.2168 184.4877 0001346  94.6717 265.4429 15.08839522 83741,6917.882,95.438,540.678,538.816,0.0
51743.0,STARLINK-3512,PAYLOAD,2023-08-19 03:11:02,15.08848149,0.000145,53.2167,180.0274,92.4106,267.7053,6.2672e-05,7.1e-06,0.0,0 STARLINK-3512,1 51743U 22016AF  23231.13266793  .00000710  00000-0  62672-4 0  9994,2 51743  53.2167 180.0274 0001450  92.4106 267.7053 15.08848149 83896,6917.855,95.437,540.724,538.717,0.0
